SL-14 R/B               
1 20511U 90018B   26155.04976694  .00000444  00000+0  52658-4 0  9992
2 20511  82.5200 142.3872 0016595 162.6490 197.5296 14.82207440935377
HST                     
1 20580U 90037B   26153.34296606  .00005773  00000+0  18209-3 0  9991
2 20580  28.4711 182.0162 0001700 354.7953   5.2625 15.30586461786295
SL-16 R/B               
1 20625U 90046B   26155.08233945  .00000134  00000+0  93491-4 0  9994
2 20625  70.9974 116.4705 0014272 181.7301 178.3775 14.15019227860615
COSMOS 2084             
1 20663U 90055A   26155.04803529  .00002445  00000+0  18031-3 0  9996
2 20663  62.7909  40.9352 0005620 255.1473 104.9006 15.06060518949324
SL-6 R/B(2)             
1 20666U 90055D   26154.95114358  .00001890  00000+0  14882-3 0  9996
2 20666  62.7840 320.4153 0038508   3.3045 356.8301 15.03956034951160
SL-8 R/B                
1 20775U 90078B   26155.11803156  .00017413  00000+0  49079-3 0  9996
2 20775  82.9008 173.4473 0353382  82.4230 281.6975 14.91836998822178
SL-8 R/B                
1 21088U 91006B   26154.99083538  .00000044  00000+0  28375-4 0  9994
2 21088  82.9415 105.8504 0023027 149.9397 281.1794 13.77505004775956
OKEAN-3                 
1 21397U 91039A   26154.64442454  .00002618  00000+0  18089-3 0  9990
2 21397  82.5174 253.5133 0014724  43.5026 316.7359 15.05266632877968
COSMOS 2151             
1 21422U 91042A   26155.72211729  .00001889  00000+0  14794-3 0  9990
2 21422  82.4963 359.7115 0013589 121.4118 238.8437 15.00403015876241
SL-14 R/B               
1 21423U 91042B   26155.05355436  .00000462  00000+0  55391-4 0  9996
2 21423  82.4916 139.2120 0015976 321.7540  38.2540 14.81893799865866
ERS-1                   
1 21574U 91050A   26155.02786734  .00000262  00000+0  98446-4 0  9994
2 21574  98.7800 175.4041 0030917 307.4831  52.3545 14.39508652828152
ARIANE 40 R/B           
1 21610U 91050F   26155.08191195  .00000373  00000+0  12387-3 0  9994
2 21610  98.1881 204.0084 0003632 151.1454 208.9939 14.42949199831453
INTERCOSMOS 25          
1 21819U 91086A   26154.32869475  .00001025  00000+0  20371-3 0  9990
2 21819  82.6052 258.1959 1484582 292.3131  52.7351 12.12177492507065
SL-8 R/B                
1 21876U 92008B   26155.10893581  .00000045  00000+0  30445-4 0  9995
2 21876  82.9272 203.5110 0033254 252.4121 165.6806 13.75973678721303
SL-8 R/B                
1 21938U 92020B   26154.31747455  .00000062  00000+0  48506-4 0  9994
2 21938  82.9301  90.1587 0030412  60.0314  56.2183 13.75547502712905
USA 81                  
1 21949U 92023A   26154.30358161  .00000208  00000+0  69610-4 0  9991
2 21949  85.0074  82.0194 0002699  97.3286 262.8213 14.32394120107041
COSMOS 2219             
1 22219U 92076A   26155.10414027 -.00000156  00000+0 -57138-4 0  9999
2 22219  71.0583 197.4225 0015989  65.5619 294.7169 14.14095971730599
SL-16 R/B               
1 22220U 92076B   26155.04963104 -.00000077  00000+0 -14280-4 0  9992
2 22220  71.0012   6.4572 0014276 316.0540 155.9169 14.16872825734064
COSMOS 2221             
1 22236U 92080A   26155.10060564  .00001691  00000+0  14646-3 0  9995
2 22236  82.5038 196.3020 0012585 260.7413  99.2386 14.96500118793717
SL-16 R/B               
1 22285U 92093B   26155.09793767  .00000067  00000+0  58489-4 0  9999
2 22285  71.0204 182.8693 0004664 205.0986 154.9911 14.15464748725381
COSMOS 2228             
1 22286U 92094A   26155.72659039  .00002494  00000+0  21091-3 0  9998
2 22286  82.5167 153.9781 0018158  14.8591 345.3161 14.97539535789082
SL-16 R/B               
1 22566U 93016B   26155.07660135 -.00000098  00000+0 -26066-4 0  9999
2 22566  71.0082  33.7448 0011044 202.8538 157.2095 14.15308617714397
COSMOS 2242             
1 22626U 93024A   26155.14559846  .00001937  00000+0  16629-3 0  9993
2 22626  82.5183 184.0195 0016617  20.4483 339.7401 14.96864609793321
SL-16 R/B               
1 22803U 93059B   26155.07963036 -.00000085  00000+0 -18236-4 0  9992
2 22803  70.9886 188.9455 0014880  76.8485 283.4298 14.17243348691777
ARIANE 40 R/B           
1 22830U 93061H   26155.07767845  .00000263  00000+0  11204-3 0  9998
2 22830  98.4820 222.2065 0011286  34.5702 325.6215 14.32902182706476
COSMOS 2278             
1 23087U 94023A   26154.59740183  .00000354  00000+0  20947-3 0  9999
2 23087  71.0539 355.3603 0010647 258.3884 101.6044 14.14389092656956
SL-16 R/B               
1 23088U 94023B   26154.60520974 -.00000021  00000+0  13615-4 0  9993
2 23088  70.9999 250.4545 0003614 202.8556 157.2406 14.15018195658248
SL-16 R/B               
1 23343U 94074B   26155.09522668  .00000530  00000+0  77460-4 0  9991
2 23343  97.6996 182.3613 0005331 308.1191 117.6539 14.79490956700027
SL-16 R/B               
1 23405U 94077B   26155.11858769 -.00000259  00000+0 -10760-3 0  9999
2 23405  70.9811 170.6569 0002439 336.1230  23.9779 14.15575309628465
ARIANE 40+ R/B          
1 23561U 95021B   26155.69466034  .00000317  00000+0  11488-3 0  9996
2 23561  98.4413 225.9496 0005746 234.6483 238.4905 14.39826399631765
